     3.00           N                   E                   RINEX VERSION / TYPE
BRD_USR             ESA                 20190115 231643  UTCPGM / RUN BY / DATE
 GAL   3.9750E+01  1.3281E-01 -1.4954E-03  0.0000E+00       IONOSPHERIC CORR
GAUT  1.8626451492E-09-8.881784197E-16 172800 2036 GSTB   0 TIME SYSTEM CORR
GPGA -4.4528860599E-09-2.442490654E-14 259200 2036 GSTB   0 TIME SYSTEM CORR
                                                            END OF HEADER
E08 2019 01 15 21 00 00 6.422739999834E-03-7.489120434911E-12 0.000000000000E+00
     3.000000000000E+01-4.381250000000E+01 3.404070364623E-09 5.583285951414E-02
    -2.052634954453E-06 2.117789117619E-04 7.718801498413E-06 5.440615184784E+03
     2.484000000000E+05-2.421438694000E-08 1.110805512114E+00-1.303851604462E-08
     9.583968955233E-01 1.753437500000E+02 4.432237663689E-01-5.693451440820E-09
    -1.739358165535E-10 2.580000000000E+02 2.036000000000E+03 0.000000000000E+00
     3.120000000000E+00 0.000000000000E+00-8.847564458847E-09 0.000000000000E+00
     2.491000000000E+05 0.000000000000E+00 0.000000000000E+00 0.000000000000E+00
E09 2019 01 15 21 00 00 6.557209242601E-03-1.132605120802E-11 0.000000000000E+00
     3.000000000000E+01-4.756250000000E+01 3.455143920613E-09 2.791504299850E+00
    -2.162531018257E-06 2.374654868618E-04 7.931143045425E-06 5.440608913422E+03
     2.484000000000E+05 3.352761268616E-08 1.110803092447E+00-1.862645149231E-08
     9.584271047817E-01 1.682187500000E+02 6.246869542048E-02-5.708452065656E-09
    -2.435815747217E-10 2.580000000000E+02 2.036000000000E+03 0.000000000000E+00
     3.120000000000E+00 0.000000000000E+00-3.259629011154E-09 0.000000000000E+00
     2.491000000000E+05 0.000000000000E+00 0.000000000000E+00 0.000000000000E+00
E11 2019 01 15 21 00 00 5.719852226321E-03 6.536993168993E-13 0.000000000000E+00
     3.000000000000E+01-9.384375000000E+01 2.504390032183E-09-9.771803979316E-01
    -4.256144165993E-06 2.889159368351E-04 1.088157296181E-05 5.440610904694E+03
     2.484000000000E+05 1.117587089539E-08-9.858997115260E-01-2.048909664154E-08
     9.820034881584E-01 1.189062500000E+02-3.560742634195E-01-5.341651072637E-09
     1.082187934614E-10 2.580000000000E+02 2.036000000000E+03 0.000000000000E+00
     3.120000000000E+00 0.000000000000E+00-1.839362084866E-08 0.000000000000E+00
     2.491000000000E+05 0.000000000000E+00 0.000000000000E+00 0.000000000000E+00
E12 2019 01 15 21 00 00 5.950384424068E-03 8.435563358944E-11 0.000000000000E+00
     3.000000000000E+01-8.062500000000E+01 2.637609867038E-09 3.140451053763E-01
    -3.838911652565E-06 4.097948549315E-04 1.114606857300E-05 5.440609182358E+03
     2.484000000000E+05 2.793967723846E-08-9.859151102017E-01 4.097819328308E-08
     9.820169996698E-01 1.102187500000E+02-8.436902452566E-01-5.410582515336E-09
     1.175048945505E-10 2.580000000000E+02 2.036000000000E+03 0.000000000000E+00
     3.120000000000E+00 0.000000000000E+00-1.536682248116E-08 0.000000000000E+00
     2.491000000000E+05 0.000000000000E+00 0.000000000000E+00 0.000000000000E+00
E14 2019 01 15 21 00 00 6.459400814492E-03-5.584865903074E-12 0.000000000000E+00
     3.000000000000E+01-1.993125000000E+02 5.091997816434E-09 2.028523977949E+00
    -8.875504136086E-06 1.662843532395E-01 5.736947059631E-07 5.289378482819E+03
     2.484000000000E+05 3.159046173096E-06-1.588462289990E+00-1.356005668640E-06
     8.826426846964E-01 3.089687500000E+02 1.458653750601E+00-6.127040930134E-09
    -4.321608583773E-11 2.580000000000E+02 2.036000000000E+03 0.000000000000E+00
     3.120000000000E+00 5.600000000000E+01 3.282912075520E-08 0.000000000000E+00
     2.491000000000E+05 0.000000000000E+00 0.000000000000E+00 0.000000000000E+00
E15 2019 01 15 21 00 00 9.228675626218E-04-1.065814103640E-12 0.000000000000E+00
     3.000000000000E+01-6.803125000000E+01 2.563321058325E-09-2.113048347551E+00
    -3.239139914513E-06 3.947756486014E-04 9.009614586830E-06 5.440605039597E+03
     2.484000000000E+05 3.352761268616E-08-9.911909574819E-01-2.235174179077E-08
     9.852024306415E-01 1.617187500000E+02-1.572914212316E+00-5.409511042134E-09
     6.607418082628E-11 2.580000000000E+02 2.036000000000E+03 0.000000000000E+00
     3.120000000000E+00 5.600000000000E+01 1.396983861923E-09 0.000000000000E+00
     2.491000000000E+05 0.000000000000E+00 0.000000000000E+00 0.000000000000E+00
E19 2019 01 15 21 00 00-9.095063433051E-06 2.842170943040E-13 0.000000000000E+00
     3.000000000000E+01-3.384375000000E+01 3.436928876169E-09 2.089867167105E+00
    -1.726672053337E-06 1.308450009674E-04 8.087605237961E-06 5.440613910675E+03
     2.484000000000E+05 6.146728992462E-08 1.116157463318E+00 3.725290298462E-08
     9.581820674663E-01 1.631875000000E+02 2.414310164612E+00-5.707737750188E-09
    -2.303667385565E-10 2.580000000000E+02 2.036000000000E+03 0.000000000000E+00
     3.120000000000E+00 0.000000000000E+00-8.149072527885E-09 0.000000000000E+00
     2.491000000000E+05 0.000000000000E+00 0.000000000000E+00 0.000000000000E+00
E21 2019 01 15 21 00 00-5.146094481461E-04-1.818989403546E-12 0.000000000000E+00
     3.000000000000E+01 1.046875000000E+02 2.927264789471E-09 2.485256316695E+00
     4.854053258896E-06 4.436098970473E-05 4.401430487633E-06 5.440626708984E+03
     2.484000000000E+05 2.607703208923E-08-3.073825791148E+00-3.539025783539E-08
     9.896654104168E-01 2.594687500000E+02 6.512083204119E-01-5.652735459121E-09
     7.857470152314E-11 2.580000000000E+02 2.036000000000E+03 0.000000000000E+00
     3.120000000000E+00 0.000000000000E+00-2.328306436539E-09 0.000000000000E+00
     2.491000000000E+05 0.000000000000E+00 0.000000000000E+00 0.000000000000E+00
E24 2019 01 15 21 00 00 6.284167815465E-03-1.971045548999E-11 0.000000000000E+00
     3.000000000000E+01 1.224375000000E+02 2.982267080537E-09 2.230254438707E-01
     5.763024091721E-06 4.790039965883E-04 4.524365067482E-06 5.440616706848E+03
     2.484000000000E+05-1.490116119385E-08-3.067760815135E+00-7.636845111847E-08
     9.876687203438E-01 2.531562500000E+02 5.368310534653E-01-5.741667734936E-09
     9.607543049875E-11 2.580000000000E+02 2.036000000000E+03 0.000000000000E+00
     3.120000000000E+00 0.000000000000E+00 4.260800778866E-08 0.000000000000E+00
     2.491000000000E+05 0.000000000000E+00 0.000000000000E+00 0.000000000000E+00
E26 2019 01 15 21 00 00 5.015743547119E-03-4.330047431722E-11 0.000000000000E+00
     3.000000000000E+01-5.718750000000E+01 2.595108096669E-09 2.995863785317E+00
    -2.715736627579E-06 3.189131384715E-04 1.031160354614E-05 5.440613500595E+03
     2.484000000000E+05-1.005828380585E-07-9.822876746245E-01 5.960464477539E-08
     9.783620934168E-01 1.275312500000E+02-1.963093612191E+00-5.364152009891E-09
     1.600066649198E-10 2.580000000000E+02 2.036000000000E+03 0.000000000000E+00
     3.120000000000E+00 0.000000000000E+00 9.313225746155E-10 0.000000000000E+00
     2.491000000000E+05 0.000000000000E+00 0.000000000000E+00 0.000000000000E+00
E27 2019 01 15 21 00 00 5.490122130141E-04-7.631228982063E-12 0.000000000000E+00
     3.000000000000E+01 1.015625000000E+02 2.917264372914E-09-1.541932714635E+00
     4.740431904793E-06 1.688560005277E-04 4.388391971588E-06 5.440626827240E+03
     2.484000000000E+05 4.656612873077E-08-3.073809036347E+00-4.470348358154E-08
     9.896376968967E-01 2.580000000000E+02-8.179023759341E-01-5.671664819034E-09
     4.000166622996E-11 2.580000000000E+02 2.036000000000E+03 0.000000000000E+00
     3.120000000000E+00 0.000000000000E+00-2.561137080193E-09 0.000000000000E+00
     2.491000000000E+05 0.000000000000E+00 0.000000000000E+00 0.000000000000E+00
E30 2019 01 15 21 00 00 5.185695888940E-03-3.053912678297E-11 0.000000000000E+00
     3.000000000000E+01 1.001562500000E+02 2.965123509296E-09-2.227262518150E+00
     4.727393388748E-06 3.105587093160E-04 4.665926098824E-06 5.440619525909E+03
     2.484000000000E+05 6.332993507385E-08-3.067816881470E+00 8.009374141693E-08
     9.876526809099E-01 2.535312500000E+02 6.334315294686E-01-5.705594803782E-09
     1.007184810433E-10 2.580000000000E+02 2.036000000000E+03 0.000000000000E+00
     3.120000000000E+00 0.000000000000E+00-3.026798367500E-09 0.000000000000E+00
     2.491000000000E+05 0.000000000000E+00 0.000000000000E+00 0.000000000000E+00
E33 2019 01 15 21 00 00 8.479250827804E-04 4.263256414561E-14 0.000000000000E+00
     3.000000000000E+01-6.375000000000E+01 2.557963692312E-09 1.642008531012E+00
    -3.019347786903E-06 3.751969197765E-04 1.072883605957E-05 5.440605289459E+03
     2.484000000000E+05 1.490116119385E-08-9.912161738009E-01 5.215406417847E-08
     9.852403714218E-01 1.196875000000E+02-1.400587104418E+00-5.389510209019E-09
     1.703642392115E-10 2.580000000000E+02 2.036000000000E+03 0.000000000000E+00
     3.120000000000E+00 5.600000000000E+01-8.381903171539E-09 0.000000000000E+00
     2.491000000000E+05 0.000000000000E+00 0.000000000000E+00 0.000000000000E+00
E36 2019 01 15 20 00 00 7.592613692395E-04-4.533262654149E-12 0.000000000000E+00
     2.400000000000E+01-8.281250000000E+01 2.582964733706E-09-1.062861834793E+00
    -3.753229975700E-06 3.373874351382E-04 9.490177035332E-06 5.440597887039E+03
     2.448000000000E+05 3.166496753693E-08-9.911710383894E-01 5.774199962616E-08
     9.852485813181E-01 1.506250000000E+02-1.496592553121E+00-5.336650864358E-09
     1.582208762489E-10 2.580000000000E+02 2.036000000000E+03 0.000000000000E+00
     3.120000000000E+00 5.600000000000E+01 1.164153218269E-09 0.000000000000E+00
     2.491000000000E+05 0.000000000000E+00 0.000000000000E+00 0.000000000000E+00
